GLOBALSTAR M045         
1 25676U 99019A   24200.71985444 -.00000061  00000+0  28576-3 0  9992
2 25676  51.9945 175.7058 0000612 307.1306 223.9620 12.27041621152450
GLOBALSTAR M019         
1 25677U 99019B   24200.63188344  .00000013  00000+0  10761-2 0  9990
2 25677  51.9884 282.8572 0000711  44.7152 106.0099 12.13860739144633
GLOBALSTAR M025         
1 25770U 99031A   24200.76918845 -.00000025  00000+0  13117-2 0  9991
2 25770  51.9777 211.6559 0001703 301.5240 229.9752 11.22551527444261
GLOBALSTAR M049         
1 25771U 99031B   24200.43728277  .00000032  00000+0  33771-2 0  9999
2 25771  51.9836 230.4159 0003044 178.0780 182.0028 11.12107035 80293
GLOBALSTAR M047         
1 25772U 99031C   24200.43402600 -.00000034  00000+0  97784-3 0  9997
2 25772  51.9817 259.2808 0016024  50.5860 309.6362 11.31921256433311
GLOBALSTAR M052         
1 25773U 99031D   24200.85310354 -.00000023  00000+0  14312-2 0  9991
2 25773  51.9898 342.8368 0002147 354.0634 120.9195 11.15052211441329
